{
    "links": {
        "self": "http://www.neowsapp.com/rest/v1/neo/3763483?api_key=iIulBulltgU6a56xZRHN4H3l9WmuAYTsLGpBGhQ2"
    },
    "id": "3763483",
    "neo_reference_id": "3763483",
    "name": "(2016 VF3)",
    "designation": "2016 VF3",
    "nasa_jpl_url": "http://ssd.jpl.nasa.gov/sbdb.cgi?sstr=3763483",
    "absolute_magnitude_h": 21.5,
    "estimated_diameter": {
        "kilometers": {
            "estimated_diameter_min": 0.1332155667,
            "estimated_diameter_max": 0.2978790628
        },
        "meters": {
            "estimated_diameter_min": 133.2155666981,
            "estimated_diameter_max": 297.8790627982
        },
        "miles": {
            "estimated_diameter_min": 0.0827762899,
            "estimated_diameter_max": 0.1850934111
        },
        "feet": {
            "estimated_diameter_min": 437.0589598459,
            "estimated_diameter_max": 977.2935443908
        }
    },
    "is_potentially_hazardous_asteroid": false,
    "close_approach_data": [
        {
            "close_approach_date": "1999-11-01",
            "close_approach_date_full": "1999-Nov-01 16:51",
            "epoch_date_close_approach": 941475060000,
            "relative_velocity": {
                "kilometers_per_second": "9.2874948445",
                "kilometers_per_hour": "33434.981440145",
                "miles_per_hour": "20775.1972176279"
            },
            "miss_distance": {
                "astronomical": "0.4612311316",
                "lunar": "179.4189101924",
                "kilometers": "68999194.865049692",
                "miles": "42874111.5901700696"
            },
            "orbiting_body": "Earth"
        },
        {
            "close_approach_date": "2016-10-29",
            "close_approach_date_full": "2016-Oct-29 20:41",
            "epoch_date_close_approach": 1477773660000,
            "relative_velocity": {
                "kilometers_per_second": "11.20516245",
                "kilometers_per_hour": "40338.584819869",
                "miles_per_hour": "25064.8278843236"
            },
            "miss_distance": {
                "astronomical": "0.34002831",
                "lunar": "132.27101259",
                "kilometers": "50867510.9156997",
                "miles": "31607605.61886786"
            },
            "orbiting_body": "Earth"
        }
    ],
    "orbital_data": {
        "orbit_id": "8",
        "orbit_determination_date": "2017-04-06 08:22:21",
        "first_observation_date": "2016-11-05",
        "last_observation_date": "2016-12-06",
        "data_arc_in_days": 31,
        "observations_used": 45,
        "orbit_uncertainty": "6",
        "minimum_orbit_intersection": ".261047",
        "jupiter_tisserand_invariant": "3.132",
        "epoch_osculation": "2459000.5",
        "eccentricity": ".5332355583011413",
        "semi_major_axis": "2.639602849625829",
        "inclination": "15.54065828061043",
        "ascending_node_longitude": "51.44980034206582",
        "orbital_period": "1566.413111457488",
        "perihelion_distance": "1.232072750412316",
        "perihelion_argument": "332.644410367755",
        "aphelion_distance": "4.047132948839341",
        "perihelion_time": "2459254.071775349786",
        "mean_anomaly": "301.7230113446989",
        "mean_motion": ".2298244296902199",
        "equinox": "J2000",
        "orbit_class": {
            "orbit_class_type": "AMO",
            "orbit_class_description": "Near-Earth asteroid orbits similar to that of 1221 Amor",
            "orbit_class_range": "1.017 AU < q (perihelion) < 1.3 AU"
        }
    },
    "is_sentry_object": false
}